CCSDS_OMM_VERS = 2.0
CREATION_DATE  = 
ORIGINATOR     = 

OBJECT_NAME    = STARLINK-36237
OBJECT_ID      = 2026-059S
CENTER_NAME    = EARTH
REF_FRAME      = TEME
TIME_SYSTEM    = UTC
MEAN_ELEMENT_THEORY = SGP/SGP4

EPOCH          = 2026-03-31T16:00:01.999584
MEAN_MOTION    = 15.81486973
ECCENTRICITY   = .0001
INCLINATION    = 53.1593
RA_OF_ASC_NODE = 252.6114
ARG_OF_PERICENTER = 67.9776
MEAN_ANOMALY   = 208.6764

EPHEMERIS_TYPE = 0
CLASSIFICATION_TYPE = U
NORAD_CAT_ID   = 68337
ELEMENT_SET_NO = 999
REV_AT_EPOCH   = 257
BSTAR          = -.47087E-2
MEAN_MOTION_DOT = -.866364E-2
MEAN_MOTION_DDOT = 0

CCSDS_OMM_VERS = 2.0
CREATION_DATE  = 
ORIGINATOR     = 

OBJECT_NAME    = STARLINK-36254
OBJECT_ID      = 2026-059T
CENTER_NAME    = EARTH
REF_FRAME      = TEME
TIME_SYSTEM    = UTC
MEAN_ELEMENT_THEORY = SGP/SGP4

EPOCH          = 2026-03-31T16:00:01.999584
MEAN_MOTION    = 15.82182018
ECCENTRICITY   = .0001069
INCLINATION    = 53.1593
RA_OF_ASC_NODE = 252.5947
ARG_OF_PERICENTER = 85.6099
MEAN_ANOMALY   = 199.0703

EPHEMERIS_TYPE = 0
CLASSIFICATION_TYPE = U
NORAD_CAT_ID   = 68338
ELEMENT_SET_NO = 999
REV_AT_EPOCH   = 257
BSTAR          = -.85547E-2
MEAN_MOTION_DOT = -.1573633E-1
MEAN_MOTION_DDOT = 0

CCSDS_OMM_VERS = 2.0
CREATION_DATE  = 
ORIGINATOR     = 

OBJECT_NAME    = STARLINK-37200
OBJECT_ID      = 2026-059U
CENTER_NAME    = EARTH
REF_FRAME      = TEME
TIME_SYSTEM    = UTC
MEAN_ELEMENT_THEORY = SGP/SGP4

EPOCH          = 2026-03-31T16:00:01.999584
MEAN_MOTION    = 15.81831531
ECCENTRICITY   = .0001256
INCLINATION    = 53.1592
RA_OF_ASC_NODE = 252.6033
ARG_OF_PERICENTER = 99.8036
MEAN_ANOMALY   = 180.8964

EPHEMERIS_TYPE = 0
CLASSIFICATION_TYPE = U
NORAD_CAT_ID   = 68339
ELEMENT_SET_NO = 999
REV_AT_EPOCH   = 257
BSTAR          = -.69663E-2
MEAN_MOTION_DOT = -.1269689E-1
MEAN_MOTION_DDOT = 0

CCSDS_OMM_VERS = 2.0
CREATION_DATE  = 
ORIGINATOR     = 

OBJECT_NAME    = STARLINK-37185
OBJECT_ID      = 2026-059V
CENTER_NAME    = EARTH
REF_FRAME      = TEME
TIME_SYSTEM    = UTC
MEAN_ELEMENT_THEORY = SGP/SGP4

EPOCH          = 2026-03-31T16:00:01.999584
MEAN_MOTION    = 15.82470616
ECCENTRICITY   = .0000627
INCLINATION    = 53.1593
RA_OF_ASC_NODE = 252.5867
ARG_OF_PERICENTER = 79.3538
MEAN_ANOMALY   = 209.3279

EPHEMERIS_TYPE = 0
CLASSIFICATION_TYPE = U
NORAD_CAT_ID   = 68340
ELEMENT_SET_NO = 999
REV_AT_EPOCH   = 257
BSTAR          = -.9792E-2
MEAN_MOTION_DOT = -.1828809E-1
MEAN_MOTION_DDOT = 0

CCSDS_OMM_VERS = 2.0
CREATION_DATE  = 
ORIGINATOR     = 

OBJECT_NAME    = STARLINK-37181
OBJECT_ID      = 2026-059W
CENTER_NAME    = EARTH
REF_FRAME      = TEME
TIME_SYSTEM    = UTC
MEAN_ELEMENT_THEORY = SGP/SGP4

EPOCH          = 2026-03-31T16:00:01.999584
MEAN_MOTION    = 15.82710798
ECCENTRICITY   = .0000926
INCLINATION    = 53.1594
RA_OF_ASC_NODE = 252.5782
ARG_OF_PERICENTER = 73.8240
MEAN_ANOMALY   = 218.8218

EPHEMERIS_TYPE = 0
CLASSIFICATION_TYPE = U
NORAD_CAT_ID   = 68341
ELEMENT_SET_NO = 999
REV_AT_EPOCH   = 257
BSTAR          = -.10164E-1
MEAN_MOTION_DOT = -.1908523E-1
MEAN_MOTION_DDOT = 0

CCSDS_OMM_VERS = 2.0
CREATION_DATE  = 
ORIGINATOR     = 

OBJECT_NAME    = STARLINK-37192
OBJECT_ID      = 2026-059X
CENTER_NAME    = EARTH
REF_FRAME      = TEME
TIME_SYSTEM    = UTC
MEAN_ELEMENT_THEORY = SGP/SGP4

EPOCH          = 2026-03-31T16:00:01.999584
MEAN_MOTION    = 15.83167276
ECCENTRICITY   = .0000857
INCLINATION    = 53.1592
RA_OF_ASC_NODE = 252.5623
ARG_OF_PERICENTER = 73.8084
MEAN_ANOMALY   = 226.6208

EPHEMERIS_TYPE = 0
CLASSIFICATION_TYPE = U
NORAD_CAT_ID   = 68342
ELEMENT_SET_NO = 999
REV_AT_EPOCH   = 257
BSTAR          = -.10233E-1
MEAN_MOTION_DOT = -.1956325E-1
MEAN_MOTION_DDOT = 0

CCSDS_OMM_VERS = 2.0
CREATION_DATE  = 
ORIGINATOR     = 

OBJECT_NAME    = STARLINK-37158
OBJECT_ID      = 2026-059Y
CENTER_NAME    = EARTH
REF_FRAME      = TEME
TIME_SYSTEM    = UTC
MEAN_ELEMENT_THEORY = SGP/SGP4

EPOCH          = 2026-03-31T16:00:01.999584
MEAN_MOTION    = 15.83383183
ECCENTRICITY   = .0000492
INCLINATION    = 53.1593
RA_OF_ASC_NODE = 252.5541
ARG_OF_PERICENTER = 78.1598
MEAN_ANOMALY   = 226.1343

EPHEMERIS_TYPE = 0
CLASSIFICATION_TYPE = U
NORAD_CAT_ID   = 68343
ELEMENT_SET_NO = 999
REV_AT_EPOCH   = 257
BSTAR          = -.10314E-1
MEAN_MOTION_DOT = -.1987036E-1
MEAN_MOTION_DDOT = 0

CCSDS_OMM_VERS = 2.0
CREATION_DATE  = 
ORIGINATOR     = 

OBJECT_NAME    = STARLINK-36380
OBJECT_ID      = 2026-059Z
CENTER_NAME    = EARTH
REF_FRAME      = TEME
TIME_SYSTEM    = UTC
MEAN_ELEMENT_THEORY = SGP/SGP4

EPOCH          = 2026-03-31T16:00:01.999584
MEAN_MOTION    = 15.82936644
ECCENTRICITY   = .0000761
INCLINATION    = 53.1592
RA_OF_ASC_NODE = 252.5705
ARG_OF_PERICENTER = 67.0637
MEAN_ANOMALY   = 229.5322

EPHEMERIS_TYPE = 0
CLASSIFICATION_TYPE = U
NORAD_CAT_ID   = 68344
ELEMENT_SET_NO = 999
REV_AT_EPOCH   = 257
BSTAR          = -.10483E-1
MEAN_MOTION_DOT = -.1978563E-1
MEAN_MOTION_DDOT = 0

CCSDS_OMM_VERS = 2.0
CREATION_DATE  = 
ORIGINATOR     = 

OBJECT_NAME    = STARLINK-37214
OBJECT_ID      = 2026-059AA
CENTER_NAME    = EARTH
REF_FRAME      = TEME
TIME_SYSTEM    = UTC
MEAN_ELEMENT_THEORY = SGP/SGP4

EPOCH          = 2026-03-31T16:00:01.999584
MEAN_MOTION    = 15.83790224
ECCENTRICITY   = .0000591
INCLINATION    = 53.1593
RA_OF_ASC_NODE = 252.5383
ARG_OF_PERICENTER = 65.4106
MEAN_ANOMALY   = 246.4881

EPHEMERIS_TYPE = 0
CLASSIFICATION_TYPE = U
NORAD_CAT_ID   = 68345
ELEMENT_SET_NO = 999
REV_AT_EPOCH   = 257
BSTAR          = -.10059E-1
MEAN_MOTION_DOT = -.1977767E-1
MEAN_MOTION_DDOT = 0

CCSDS_OMM_VERS = 2.0
CREATION_DATE  = 
ORIGINATOR     = 

OBJECT_NAME    = STARLINK-37169
OBJECT_ID      = 2026-059AB
CENTER_NAME    = EARTH
REF_FRAME      = TEME
TIME_SYSTEM    = UTC
MEAN_ELEMENT_THEORY = SGP/SGP4

EPOCH          = 2026-03-31T16:00:01.999584
MEAN_MOTION    = 15.83992471
ECCENTRICITY   = .0000643
INCLINATION    = 53.1592
RA_OF_ASC_NODE = 252.5304
ARG_OF_PERICENTER = 75.5653
MEAN_ANOMALY   = 240.0732

EPHEMERIS_TYPE = 0
CLASSIFICATION_TYPE = U
NORAD_CAT_ID   = 68346
ELEMENT_SET_NO = 999
REV_AT_EPOCH   = 257
BSTAR          = -.99069E-2
MEAN_MOTION_DOT = -.1968431E-1
MEAN_MOTION_DDOT = 0

CCSDS_OMM_VERS = 2.0
CREATION_DATE  = 
ORIGINATOR     = 

OBJECT_NAME    = STARLINK-37136
OBJECT_ID      = 2026-059AC
CENTER_NAME    = EARTH
REF_FRAME      = TEME
TIME_SYSTEM    = UTC
MEAN_ELEMENT_THEORY = SGP/SGP4

EPOCH          = 2026-03-31T16:00:01.999584
MEAN_MOTION    = 15.84180643
ECCENTRICITY   = .0000681
INCLINATION    = 53.1593
RA_OF_ASC_NODE = 252.5226
ARG_OF_PERICENTER = 79.0676
MEAN_ANOMALY   = 240.3322

EPHEMERIS_TYPE = 0
CLASSIFICATION_TYPE = U
NORAD_CAT_ID   = 68347
ELEMENT_SET_NO = 999
REV_AT_EPOCH   = 257
BSTAR          = -.98087E-2
MEAN_MOTION_DOT = -.1966979E-1
MEAN_MOTION_DDOT = 0

CCSDS_OMM_VERS = 2.0
CREATION_DATE  = 
ORIGINATOR     = 

OBJECT_NAME    = STARLINK-37182
OBJECT_ID      = 2026-059AD
CENTER_NAME    = EARTH
REF_FRAME      = TEME
TIME_SYSTEM    = UTC
MEAN_ELEMENT_THEORY = SGP/SGP4

EPOCH          = 2026-03-31T16:00:01.999584
MEAN_MOTION    = 15.83565641
ECCENTRICITY   = .000077
INCLINATION    = 53.1593
RA_OF_ASC_NODE = 252.5461
ARG_OF_PERICENTER = 69.8164
MEAN_ANOMALY   = 238.3665

EPHEMERIS_TYPE = 0
CLASSIFICATION_TYPE = U
NORAD_CAT_ID   = 68348
ELEMENT_SET_NO = 999
REV_AT_EPOCH   = 257
BSTAR          = -.10274E-1
MEAN_MOTION_DOT = -.199557E-1
MEAN_MOTION_DDOT = 0

